{"type": "FeatureCollection", "features": [ {"type": "Feature", "properties": {"norad_id": 30013, "name": "FENGYUN 1C DEB", "group": "fengyun-1c-debris", "lat": 54.05832024062413, "lon": -149.53388135496334, "alt_km": 960.1476347012049, "timestamp": "2025-12-23T07:45:09.677567+00:00", "meta": {"OBJECT_NAME": "FENGYUN 1C DEB", "OBJECT_ID": "1999-025MN", "EPOCH": "2025-12-22T19:55:24.573792", "MEAN_MOTION": 13.87831595, "ECCENTRICITY": 0.01279051, "INCLINATION": 99.5794, "RA_OF_ASC_NODE": 16.491, "ARG_OF_PERICENTER": 17.2461, "MEAN_ANOMALY": 164.8793, "EPHEMERIS_TYPE": 0, "CLASSIFICATION_TYPE": "U", "NORAD_CAT_ID": 30013, "ELEMENT_SET_NO": 999, "REV_AT_EPOCH": 95821, "BSTAR": 0.00022637576, "MEAN_MOTION_DOT": 2.4e-06, "MEAN_MOTION_DDOT": 0}, "tle": {"line1": "1 30013U 99025MN  25356.83014553  .00000240  00000+0  22638-3 0  9991", "line2": "2 30013  99.5794  16.4910 0127905  17.2461 164.8793 13.87831595958211"}}, "geometry": {"type": "Point", "coordinates": [-149.53388135496334, 54.05832024062413]}}, {"type": "Feature", "properties": {"norad_id": 30015, "name": "FENGYUN 1C DEB", "group": "fengyun-1c-debris", "lat": 6.611735322737047, "lon": -178.07176826705123, "alt_km": 785.2822397863638, "timestamp": "2025-12-23T07:45:09.677576+00:00", "meta": {"OBJECT_NAME": "FENGYUN 1C DEB", "OBJECT_ID": "1999-025MQ", "EPOCH": "2025-12-22T11:31:31.766592", "MEAN_MOTION": 14.30825995, "ECCENTRICITY": 0.00386744, "INCLINATION": 99.2284, "RA_OF_ASC_NODE": 359.9544, "ARG_OF_PERICENTER": 97.2465, "MEAN_ANOMALY": 56.6938, "EPHEMERIS_TYPE": 0, "CLASSIFICATION_TYPE": "U", "NORAD_CAT_ID": 30015, "ELEMENT_SET_NO": 999, "REV_AT_EPOCH": 98312, "BSTAR": 0.00049633185, "MEAN_MOTION_DOT": 1.263e-05, "MEAN_MOTION_DDOT": 0}, "tle": {"line1": "1 30015U 99025MQ  25356.48022878  .00001263  00000+0  49633-3 0  9993", "line2": "2 30015  99.2284 359.9544 0038674  97.2465  56.6938 14.30825995983121"}}, "geometry": {"type": "Point", "coordinates": [-178.07176826705123, 6.611735322737047]}}, {"type": "Feature", "properties": {"norad_id": 30016, "name": "FENGYUN 1C DEB", "group": "fengyun-1c-debris", "lat": -39.94636355334763, "lon": 17.94784416981242, "alt_km": 618.1799141226429, "timestamp": "2025-12-23T07:45:09.677587+00:00", "meta": {"OBJECT_NAME": "FENGYUN 1C DEB", "OBJECT_ID": "1999-025MR", "EPOCH": "2025-12-22T19:43:16.349664", "MEAN_MOTION": 14.78753245, "ECCENTRICITY": 0.00461701, "INCLINATION": 98.904, "RA_OF_ASC_NODE": 9.849, "ARG_OF_PERICENTER": 9.6363, "MEAN_ANOMALY": 163.1489, "EPHEMERIS_TYPE": 0, "CLASSIFICATION_TYPE": "U", "NORAD_CAT_ID": 30016, "ELEMENT_SET_NO": 999, "REV_AT_EPOCH": 99602, "BSTAR": 0.0019177093, "MEAN_MOTION_DOT": 0.00014301, "MEAN_MOTION_DDOT": 0}, "tle": {"line1": "1 30016U 99025MR  25356.82171701  .00014301  00000+0  19177-2 0  9998", "line2": "2 30016  98.9040   9.8490 0046170   9.6363 163.1489 14.78753245996021"}}, "geometry": {"type": "Point", "coordinates": [17.94784416981242, -39.94636355334763]}}, {"type": "Feature", "properties": {"norad_id": 30017, "name": "FENGYUN 1C DEB", "group": "fengyun-1c-debris", "lat": 22.62703269681145, "lon": -133.78848538828848, "alt_km": 539.5088797730841, "timestamp": "2025-12-23T07:45:09.677597+00:00", "meta": {"OBJECT_NAME": "FENGYUN 1C DEB", "OBJECT_ID": "1999-025MS", "EPOCH": "2025-12-22T01:27:50.728320", "MEAN_MOTION": 14.61216242, "ECCENTRICITY": 0.02178837, "INCLINATION": 98.7533, "RA_OF_ASC_NODE": 41.194, "ARG_OF_PERICENTER": 146.4416, "MEAN_ANOMALY": 215.0806, "EPHEMERIS_TYPE": 0, "CLASSIFICATION_TYPE": "U", "NORAD_CAT_ID": 30017, "ELEMENT_SET_NO": 999, "REV_AT_EPOCH": 580, "BSTAR": 0.00013606053, "MEAN_MOTION_DOT": 8.73e-06, "MEAN_MOTION_DDOT": 0}, "tle": {"line1": "1 30017U 99025MS  25356.06100380  .00000873  00000+0  13606-3 0  9991", "line2": "2 30017  98.7533  41.1940 0217883 146.4416 215.0806 14.61216242  5806"}}, "geometry": {"type": "Point", "coordinates": [-133.78848538828848, 22.62703269681145]}}, {"type": "Feature", "properties": {"norad_id": 30018, "name": "FENGYUN 1C DEB", "group": "fengyun-1c-debris", "lat": -69.76789873224875, "lon": 105.50889050991705, "alt_km": 705.5143258702019, "timestamp": "2025-12-23T07:45:09.677607+00:00", "meta": {"OBJECT_NAME": "FENGYUN 1C DEB", "OBJECT_ID": "1999-025MT", "EPOCH": "2025-12-22T19:36:24.790176", "MEAN_MOTION": 14.73286327, "ECCENTRICITY": 0.01169531, "INCLINATION": 98.7553, "RA_OF_ASC_NODE": 80.2459, "ARG_OF_PERICENTER": 163.9445, "MEAN_ANOMALY": 320.7609, "EPHEMERIS_TYPE": 0, "CLASSIFICATION_TYPE": "U", "NORAD_CAT_ID": 30018, "ELEMENT_SET_NO": 999, "REV_AT_EPOCH": 585, "BSTAR": 0.00079022502, "MEAN_MOTION_DOT": 5.636e-05, "MEAN_MOTION_DDOT": 0}, "tle": {"line1": "1 30018U 99025MT  25356.81695359  .00005636  00000+0  79023-3 0  9997", "line2": "2 30018  98.7553  80.2459 0116953 163.9445 320.7609 14.73286327  5854"}}, "geometry": {"type": "Point", "coordinates": [105.50889050991705, -69.76789873224875]}}, {"type": "Feature", "properties": {"norad_id": 30020, "name": "FENGYUN 1C DEB", "group": "fengyun-1c-debris", "lat": -72.29932522442367, "lon": 30.076933108316332, "alt_km": 941.1820386942491, "timestamp": "2025-12-23T07:45:09.677617+00:00", "meta": {"OBJECT_NAME": "FENGYUN 1C DEB", "OBJECT_ID": "1999-025MV", "EPOCH": "2025-12-22T12:17:57.024384", "MEAN_MOTION": 14.044818, "ECCENTRICITY": 0.01839328, "INCLINATION": 98.8471, "RA_OF_ASC_NODE": 0.0774, "ARG_OF_PERICENTER": 43.2578, "MEAN_ANOMALY": 108.0288, "EPHEMERIS_TYPE": 0, "CLASSIFICATION_TYPE": "U", "NORAD_CAT_ID": 30020, "ELEMENT_SET_NO": 999, "REV_AT_EPOCH": 96795, "BSTAR": 0.00036032445, "MEAN_MOTION_DOT": 6.26e-06, "MEAN_MOTION_DDOT": 0}, "tle": {"line1": "1 30020U 99025MV  25356.51246556  .00000626  00000+0  36032-3 0  9995", "line2": "2 30020  98.8471   0.0774 0183932  43.2578 108.0288 14.04481800967950"}}, "geometry": {"type": "Point", "coordinates": [30.076933108316332, -72.29932522442367]}}, {"type": "Feature", "properties": {"norad_id": 30021, "name": "FENGYUN 1C DEB", "group": "fengyun-1c-debris", "lat": 72.71479666007382, "lon": -161.43633487584094, "alt_km": 915.8911976466006, "timestamp": "2025-12-23T07:45:09.677627+00:00", "meta": {"OBJECT_NAME": "FENGYUN 1C DEB", "OBJECT_ID": "1999-025MW", "EPOCH": "2025-12-22T11:28:25.636800", "MEAN_MOTION": 14.04895315, "ECCENTRICITY": 0.00717769, "INCLINATION": 98.836, "RA_OF_ASC_NODE": 347.7498, "ARG_OF_PERICENTER": 259.5068, "MEAN_ANOMALY": 254.6689, "EPHEMERIS_TYPE": 0, "CLASSIFICATION_TYPE": "U", "NORAD_CAT_ID": 30021, "ELEMENT_SET_NO": 999, "REV_AT_EPOCH": 97068, "BSTAR": -2.3061366e-05, "MEAN_MOTION_DOT": -8.2e-07, "MEAN_MOTION_DDOT": 0}, "tle": {"line1": "1 30021U 99025MW  25356.47807450 -.00000082  00000+0 -23061-4 0  9994", "line2": "2 30021  98.8360 347.7498 0071776 259.5068 254.6689 14.04895315970687"}}, "geometry": {"type": "Point", "coordinates": [-161.43633487584094, 72.71479666007382]}}, {"type": "Feature", "properties": {"norad_id": 30022, "name": "FENGYUN 1C DEB", "group": "fengyun-1c-debris", "lat": -17.211834481720246, "lon": -151.40491556462385, "alt_km": 831.1348697802114, "timestamp": "2025-12-23T07:45:09.677637+00:00", "meta": {"OBJECT_NAME": "FENGYUN 1C DEB", "OBJECT_ID": "1999-025MX", "EPOCH": "2025-12-22T20:20:21.257664", "MEAN_MOTION": 14.23135888, "ECCENTRICITY": 0.00666606, "INCLINATION": 99.0716, "RA_OF_ASC_NODE": 205.2684, "ARG_OF_PERICENTER": 239.7764, "MEAN_ANOMALY": 187.0893, "EPHEMERIS_TYPE": 0, "CLASSIFICATION_TYPE": "U", "NORAD_CAT_ID": 30022, "ELEMENT_SET_NO": 999, "REV_AT_EPOCH": 98336, "BSTAR": 6.2181793e-05, "MEAN_MOTION_DOT": 9.6e-07, "MEAN_MOTION_DDOT": 0}, "tle": {"line1": "1 30022U 99025MX  25356.84746826  .00000096  00000+0  62182-4 0  9995", "line2": "2 30022  99.0716 205.2684 0066660 239.7764 187.0893 14.23135888983368"}}, "geometry": {"type": "Point", "coordinates": [-151.40491556462385, -17.211834481720246]}}, {"type": "Feature", "properties": {"norad_id": 30023, "name": "FENGYUN 1C DEB", "group": "fengyun-1c-debris", "lat": -23.42612596287324, "lon": 7.196946009751436, "alt_km": 891.7445284534961, "timestamp": "2025-12-23T07:45:09.677647+00:00", "meta": {"OBJECT_NAME": "FENGYUN 1C DEB", "OBJECT_ID": "1999-025MY", "EPOCH": "2025-12-22T19:12:06.181920", "MEAN_MOTION": 14.11876844, "ECCENTRICITY": 0.00470194, "INCLINATION": 99.2936, "RA_OF_ASC_NODE": 190.7238, "ARG_OF_PERICENTER": 35.7856, "MEAN_ANOMALY": 31.1558, "EPHEMERIS_TYPE": 0, "CLASSIFICATION_TYPE": "U", "NORAD_CAT_ID": 30023, "ELEMENT_SET_NO": 999, "REV_AT_EPOCH": 97338, "BSTAR": 0.00032996791, "MEAN_MOTION_DOT": 5.61e-06, "MEAN_MOTION_DDOT": 0}, "tle": {"line1": "1 30023U 99025MY  25356.80007155  .00000561  00000+0  32997-3 0  9994", "line2": "2 30023  99.2936 190.7238 0047019  35.7856  31.1558 14.11876844973380"}}, "geometry": {"type": "Point", "coordinates": [7.196946009751436, -23.42612596287324]}}, {"type": "Feature", "properties": {"norad_id": 30028, "name": "FENGYUN 1C DEB", "group": "fengyun-1c-debris", "lat": -18.862250945681584, "lon": -7.902240677457823, "alt_km": 814.2194630810764, "timestamp": "2025-12-23T07:45:09.677657+00:00", "meta": {"OBJECT_NAME": "FENGYUN 1C DEB", "OBJECT_ID": "1999-025ND", "EPOCH": "2025-12-21T21:28:54.022944", "MEAN_MOTION": 14.5551943, "ECCENTRICITY": 0.01745868, "INCLINATION": 98.1459, "RA_OF_ASC_NODE": 347.8993, "ARG_OF_PERICENTER": 199.8117, "MEAN_ANOMALY": 222.2019, "EPHEMERIS_TYPE": 0, "CLASSIFICATION_TYPE": "U", "NORAD_CAT_ID": 30028, "ELEMENT_SET_NO": 999, "REV_AT_EPOCH": 99855, "BSTAR": 0.00026600151, "MEAN_MOTION_DOT": 1.368e-05, "MEAN_MOTION_DDOT": 0}, "tle": {"line1": "1 30028U 99025ND  25355.89506971  .00001368  00000+0  26600-3 0  9997", "line2": "2 30028  98.1459 347.8993 0174586 199.8117 222.2019 14.55519430998552"}}, "geometry": {"type": "Point", "coordinates": [-7.902240677457823, -18.862250945681584]}}]}